#dP2024  7  3 12  0  0.00000000      96 __u+U IGS20 EXT  IAC
## 2321 302400.00000000   900.00000000 60494 0.5000000000000
+   54   G02G03G04G05G06G07G08G09G10G11G12G13G14G15G16G17G18
+        G19G20G21G22G23G24G25G26G27G28G29G30G31G32R01R02R03
+        R04R05R07R08R09R11R12R13R14R15R16R17R18R19R20R21R22
+        R24R25R26  0  0  0  0  0  0  0  0  0  0  0  0  0  0
+          0  0  0  0  0  0  0  0  0  0  0  0  0  0  0  0  0
++         7  9 10  9  9  9  9 12 10  7  8  8  8  9  7  9  9
++         8  8  7  7  9  8  7  8  9  9  8  9  8  9  8  8  7
++         8  8  8  8  8  7  7  8  8  8  7  8  8  9  8  8  8
++         8  7 10  0  0  0  0  0  0  0  0  0  0  0  0  0  0
++         0  0  0  0  0  0  0  0  0  0  0  0  0  0  0  0  0
%c M  cc GPS ccc cccc cccc cccc cccc ccccc ccccc ccccc ccccc
%c cc cc ccc ccc cccc cccc cccc cccc ccccc ccccc ccccc ccccc
%f  0.0000000  0.000000000  0.00000000000  0.000000000000000
%f  0.0000000  0.000000000  0.00000000000  0.000000000000000
%i    0    0    0    0      0      0      0      0         0
%i    0    0    0    0      0      0      0      0         0
/* IAC                                ULTRA-RAPID PREDICTION
/* S/V CLOCKS ARE ALIGNED TO GNSS TIME                      
/* G:C1WC2W R:C1PC2P E:C1XC5X C:C2IC6I J:C1CC2S             
/* PCV:IGS20_2317 OL/AL:FES2004  NONE     YN ORB:CoN CLK:CoN
*  2024 07 03 18 30  0.00000000
PG02  -4897.683281  17111.169659 -19139.474956   -406.004616
PG03   8264.398890  20004.307680 -15638.295647    442.113791
PG04   -355.147088  25712.314643   6375.365149    396.285105
PG05   7100.979592 -13181.976266  21749.982456   -178.494963
PG06  25218.870801  -4313.318192  -7276.841398    182.968211
PG07  14916.538985   9791.781102  20329.625614    -77.739415
PG08  -6374.200871  25069.693146   4812.998470    258.443776
PG09   8822.155355  19233.876732  15934.939658    258.905206
PG10 -22598.198671  -8757.025720 -11033.099275    -57.177524
PG11  22663.215916 -12262.691689   6337.918051   -698.034789
PG12  -4423.759292 -20175.893408 -17003.780252   -519.294543
PG13  13589.173193 -19927.989006  10632.792382    662.150228
PG14  22651.592609  11732.759755  -7750.099883    440.249843
PG15   3006.939524 -25868.849509   4166.535683    177.045272
PG16 -11760.768772   9521.423595  21513.822725   -246.862033
PG17  13966.928350   5381.230795 -21515.214935    684.371003
PG18 -15204.130889  -8843.834038  19976.617648   -632.492102
PG19  15950.848359  -4023.470346 -20935.737529    505.271639
PG20  15975.005593  -7374.944526  19913.652337    373.153085
PG21  -9873.845477  17623.235123 -16245.382109    111.336825
PG22  20921.939299   5917.148056 -14635.265330    -35.158917
PG23 -21211.928678 -16171.173134    153.060053    265.210357
PG24   6062.671378 -18382.641389 -18437.156065   -481.390064
PG25 -14663.200135 -20181.820445  -9823.575360    498.123656
PG26 -21189.530173    135.480726  16078.270979    126.397576
PG27 -12560.839272  18197.279473  14108.978914    -30.170446
PG28 -24560.033508   3225.830539  -9593.511326   -315.900733
PG29  -4784.968876 -21939.818601  14033.976810   -591.329409
PG30  22915.230613   1892.938811  13671.607673   -363.957637
PG31 -24805.267725   9978.781378   1213.256435   -227.022174
PG32 -14820.872730  -2847.114234 -21646.112907   -613.895990
PR01  11259.259196  18627.987474  13314.462389     90.266033
PR02  11344.466961   2501.429805  22745.864173    -23.559749
PR03   5752.790277 -15691.605293  19337.934676    103.180065
PR04  -2672.430233 -24762.961541   5563.838537    243.827442
PR05  -9677.752032 -20762.489019 -11233.904940    134.033558
PR07  -5414.296860  16236.863613 -18853.932666     85.883665
PR08   3044.035500  24763.719515  -5170.463349     -5.555765
PR09 -24390.066796  -3364.576082   6523.006582    195.669040
PR11   1546.210258  11688.924617  22636.113583     19.364965
PR12  19701.199571  11670.090795  11260.595832     42.029898
PR13  24652.222774   5249.900495  -3928.414849    -48.954234
PR14  14831.280497  -5718.590667 -19939.558593     26.654550
PR15  -3199.576618 -12150.191148 -22172.208776     78.231888
PR16 -19636.922739 -11540.572532 -11428.364268     27.034128
PR17  18455.831551 -17534.309411   1166.592576    101.386186
PR18   8707.490638 -17611.684444  16304.058440    150.123401
PR19  -3905.045912 -10167.084390  23059.164091   -282.568095
PR20 -18684.360853   6112.789346  16236.186994   -115.543987
PR21 -18768.523455  17282.389892   -788.874689   -114.492593
PR22  -7970.575399  17264.478678 -16975.404449     94.141913
PR24  18807.741896  -7132.706319 -15660.967102    -62.332826
PR25 -19038.323752  16933.436601  -1466.516789    -94.487767
PR26   2483.500964  24530.559933  -6569.204013     -4.879524
*  2024 07 03 18 45  0.00000000
PG02  -6911.561200  18014.444663 -17641.338370   -405.998118
PG03   6710.001150  18971.872275 -17559.927818    442.129183
PG04   -685.228612  26237.595554   3578.331569    396.292208
PG05   9197.648395 -11770.798820  21780.961877   -178.496148
PG06  24363.424850  -3795.985066  -9953.489297    182.948273
PG07  12859.002045  10741.795483  21217.751587    -77.731761
PG08  -6612.042367  24317.260588   7557.037830    258.459074
PG09   8467.784481  20928.884135  13863.081551    258.918592
PG10 -23411.826768  -9554.773137  -8445.449687    -57.185800
PG11  23274.321445 -12236.640207   3543.010411   -698.041371
PG12  -2828.000896 -18981.116563 -18661.937436   -519.297399
PG13  13433.042527 -18529.316042  13059.015235    662.152472
PG14  23062.673980  12399.028245  -5065.303082    440.257911
PG15   3367.068652 -25185.591707   6886.113303    177.049077
PG16 -13618.200959   7836.588274  21139.836432   -246.852368
PG17  13471.977804   7857.766341 -21058.475665    684.364827
PG18 -13068.582107  -9787.414792  21003.471110   -632.496041
PG19  15487.756950  -1662.599164 -21634.255118    505.276496
PG20  17881.481370  -6271.993374  18611.403746    373.152701
PG21 -11619.281062  18285.452302 -14195.393014    111.334519
PG22  21974.721865   7169.685894 -12400.481364    -35.163173
PG23 -20960.196041 -16219.310098   3026.745377    265.218459
PG24   7881.788819 -19152.724717 -16822.439873   -481.391844
PG25 -13550.939035 -19652.882969 -12251.694075    498.124033
PG26 -22551.030788   -981.871243  14128.793318    126.391578
PG27 -12573.883071  16390.887747  16160.921758    -30.171414
PG28 -23531.986696   2501.013327 -12069.395175   -315.915391
PG29  -4310.991655 -23357.775784  11704.240585   -591.327741
PG30  21481.130333   2745.816408  15701.599810   -363.951908
PG31 -24897.865825   9751.748025  -1605.572815   -227.021956
PG32 -14533.448104  -5337.016114 -21388.853298   -613.894514
PR01  11792.489243  20007.401773  10570.075837     90.267094
PR02  12048.374033   5157.549248  21914.880038    -23.559902
PR03   6292.428690 -13277.300705  20912.929006    103.180609
PR04  -2630.062666 -23874.333990   8634.723870    243.828939
PR05 -10126.479376 -21895.959047  -8310.078333    134.034075
PR07  -5944.688056  13852.991207 -20523.045236     85.884445
PR08   2984.513387  23914.346743  -8252.731294     -5.556169
PR09 -25003.148459  -3427.185124   3409.771630    195.670939
PR11  -1169.723288  10955.113415  23020.975114     19.363830
PR12  18233.522027  11159.416263  13939.602354     42.030301
PR13  24962.390962   5197.137228   -741.721580    -48.954508
PR14  17124.871359  -5186.704911 -18172.347922     26.654671
PR15   -522.852097 -11400.799350 -22786.526463     78.231661
PR16 -18142.008024 -11015.301242 -14104.138410     27.034659
PR17  18285.167733 -17629.355179  -2067.942196    101.389233
PR18   9946.580912 -19007.080299  13844.679425    150.125134
PR19  -1838.679170 -12072.362139  22387.406292   -282.569268
PR20 -16987.114970   4798.694582  18401.061410   -115.544615
PR21 -18553.375345  17358.588846   2444.187376   -114.495416
PR22  -9350.223931  18654.677794 -14643.227202     94.136824
PR24  17250.551628  -5762.058664 -17863.254535    -62.334001
PR25 -18926.143175  17032.936217   1743.802012    -94.489868
PR26   2378.870638  23524.546559  -9584.004365     -4.878671
EOF
